ISS (ZARYA)             
1 25544U 98067A   26083.48628161  .00013391  00000+0  25488-3 0  9991
2 25544  51.6345 359.2131 0006234 227.6352 132.4108 15.48523431558623
POISK                   
1 36086U 09060A   26083.48628161  .00013391  00000+0  25488-3 0  9999
2 36086  51.6345 359.2131 0006234 227.6352 132.4108 15.48523431558390
CSS (TIANHE)            
1 48274U 21035A   26083.49395739  .00019397  00000+0  22400-3 0  9993
2 48274  41.4663 118.0307 0004758  10.7895 349.3045 15.61427580279921
ISS (NAUKA)             
1 49044U 21066A   26083.48628161  .00013391  00000+0  25488-3 0  9997
2 49044  51.6345 359.2131 0006234 227.6352 132.4108 15.48523431558433
FREGAT DEB              
1 49271U 11037PF  26083.51009843  .00011351  00000+0  16086-1 0  9996
2 49271  51.6508 256.2575 0962852  93.4027 277.7281 12.40658271214534
CSS (WENTIAN)           
1 53239U 22085A   26083.49395739  .00019397  00000+0  22400-3 0  9996
2 53239  41.4663 118.0307 0004758  10.7895 349.3045 15.61427580279995
CSS (MENGTIAN)          
1 54216U 22143A   26083.49395739  .00019397  00000+0  22400-3 0  9997
2 54216  41.4663 118.0307 0004758  10.7895 349.3045 15.61427580279991
TIANZHOU-9              
1 64786U 25149A   26083.49395739  .00019397  00000+0  22400-3 0  9999
2 64786  41.4663 118.0307 0004758  10.7895 349.3045 15.61427580279994
PROGRESS-MS 32          
1 65586U 25204A   26083.16360592  .00014170  00000+0  26927-3 0  9995
2 65586  51.6345   0.8084 0006267 226.2093 133.8378 15.48514008554509
YOTSUBA-KULOVER         
1 65941U 98067XN  26082.96327371  .00332191  00000+0  11506-2 0  9994
2 65941  51.6197 342.8745 0005099 174.2801 185.8263 15.88031375 25769
BOTAN                   
1 65943U 98067XQ  26082.97212654  .00308939  00000+0  11098-2 0  9993
2 65943  51.6228 342.9564 0005691 173.8079 186.2997 15.87345825 25762
HRC MONOBLOCK CAMERA    
1 66052U 98067XR  26083.46970303  .00045505  00000+0  47981-3 0  9990
2 66052  51.6287 350.8514 0003822 160.3996 199.7146 15.63768342 24700
HTV-X1                  
1 66174U 25241A   26083.32282862  .00005545  00000+0  18606-3 0  9992
2 66174  51.6376   2.5775 0007466 227.6504 132.3845 15.32402906 23181
SZ-21 MODULE            
1 66515U 25246C   26083.45739579  .00033703  00000+0  27749-3 0  9997
2 66515  41.4738 112.3746 0000853 213.1562 146.9227 15.69668398 20398
SHENZHOU-22             
1 66645U 25272A   26083.49395739  .00019397  00000+0  22400-3 0  9992
2 66645  41.4663 118.0307 0004758  10.7895 349.3045 15.61427580279990
SOYUZ-MS 28             
1 66664U 25275A   26083.48628161  .00013391  00000+0  25488-3 0  9990
2 66664  51.6345 359.2131 0006234 227.6352 132.4108 15.48523431558676
DUPLEX                  
1 66906U 98067XS  26083.47964882  .00027087  00000+0  37156-3 0  9992
2 66906  51.6302 355.4219 0003163 176.3649 183.7366 15.57139447 17439
