[{"OBJECT_NAME":"ISS (ZARYA)","OBJECT_ID":"1998-067A","EPOCH":"2026-03-24T11:40:14.731104","MEAN_MOTION":15.48523431,"ECCENTRICITY":0.0006234,"INCLINATION":51.6345,"RA_OF_ASC_NODE":359.2131,"ARG_OF_PERICENTER":227.6352,"MEAN_ANOMALY":132.4108,"EPHEMERIS_TYPE":0,"CLASSIFICATION_TYPE":"U","NORAD_CAT_ID":25544,"ELEMENT_SET_NO":999,"REV_AT_EPOCH":55862,"BSTAR":0.00025488,"MEAN_MOTION_DOT":0.00013391,"MEAN_MOTION_DDOT":0},{"OBJECT_NAME":"POISK","OBJECT_ID":"2009-060A","EPOCH":"2026-03-24T11:40:14.731104","MEAN_MOTION":15.48523431,"ECCENTRICITY":0.0006234,"INCLINATION":51.6345,"RA_OF_ASC_NODE":359.2131,"ARG_OF_PERICENTER":227.6352,"MEAN_ANOMALY":132.4108,"EPHEMERIS_TYPE":0,"CLASSIFICATION_TYPE":"U","NORAD_CAT_ID":36086,"ELEMENT_SET_NO":999,"REV_AT_EPOCH":55839,"BSTAR":0.00025488,"MEAN_MOTION_DOT":0.00013391,"MEAN_MOTION_DDOT":0},{"OBJECT_NAME":"CSS (TIANHE)","OBJECT_ID":"2021-035A","EPOCH":"2026-03-24T11:51:17.918496","MEAN_MOTION":15.6142758,"ECCENTRICITY":0.0004758,"INCLINATION":41.4663,"RA_OF_ASC_NODE":118.0307,"ARG_OF_PERICENTER":10.7895,"MEAN_ANOMALY":349.3045,"EPHEMERIS_TYPE":0,"CLASSIFICATION_TYPE":"U","NORAD_CAT_ID":48274,"ELEMENT_SET_NO":999,"REV_AT_EPOCH":27992,"BSTAR":0.000224,"MEAN_MOTION_DOT":0.00019397,"MEAN_MOTION_DDOT":0},{"OBJECT_NAME":"ISS (NAUKA)","OBJECT_ID":"2021-066A","EPOCH":"2026-03-24T11:40:14.731104","MEAN_MOTION":15.48523431,"ECCENTRICITY":0.0006234,"INCLINATION":51.6345,"RA_OF_ASC_NODE":359.2131,"ARG_OF_PERICENTER":227.6352,"MEAN_ANOMALY":132.4108,"EPHEMERIS_TYPE":0,"CLASSIFICATION_TYPE":"U","NORAD_CAT_ID":49044,"ELEMENT_SET_NO":999,"REV_AT_EPOCH":55843,"BSTAR":0.00025488,"MEAN_MOTION_DOT":0.00013391,"MEAN_MOTION_DDOT":0},{"OBJECT_NAME":"FREGAT DEB","OBJECT_ID":"2011-037PF","EPOCH":"2026-03-24T12:14:32.504352","MEAN_MOTION":12.40658271,"ECCENTRICITY":0.0962852,"INCLINATION":51.6508,"RA_OF_ASC_NODE":256.2575,"ARG_OF_PERICENTER":93.4027,"MEAN_ANOMALY":277.7281,"EPHEMERIS_TYPE":0,"CLASSIFICATION_TYPE":"U","NORAD_CAT_ID":49271,"ELEMENT_SET_NO":999,"REV_AT_EPOCH":21453,"BSTAR":0.016086,"MEAN_MOTION_DOT":0.00011351,"MEAN_MOTION_DDOT":0},{"OBJECT_NAME":"CSS (WENTIAN)","OBJECT_ID":"2022-085A","EPOCH":"2026-03-24T11:51:17.918496","MEAN_MOTION":15.6142758,"ECCENTRICITY":0.0004758,"INCLINATION":41.4663,"RA_OF_ASC_NODE":118.0307,"ARG_OF_PERICENTER":10.7895,"MEAN_ANOMALY":349.3045,"EPHEMERIS_TYPE":0,"CLASSIFICATION_TYPE":"U","NORAD_CAT_ID":53239,"ELEMENT_SET_NO":999,"REV_AT_EPOCH":27999,"BSTAR":0.000224,"MEAN_MOTION_DOT":0.00019397,"MEAN_MOTION_DDOT":0},{"OBJECT_NAME":"CSS (MENGTIAN)","OBJECT_ID":"2022-143A","EPOCH":"2026-03-24T11:51:17.918496","MEAN_MOTION":15.6142758,"ECCENTRICITY":0.0004758,"INCLINATION":41.4663,"RA_OF_ASC_NODE":118.0307,"ARG_OF_PERICENTER":10.7895,"MEAN_ANOMALY":349.3045,"EPHEMERIS_TYPE":0,"CLASSIFICATION_TYPE":"U","NORAD_CAT_ID":54216,"ELEMENT_SET_NO":999,"REV_AT_EPOCH":27999,"BSTAR":0.000224,"MEAN_MOTION_DOT":0.00019397,"MEAN_MOTION_DDOT":0},{"OBJECT_NAME":"TIANZHOU-9","OBJECT_ID":"2025-149A","EPOCH":"2026-03-24T11:51:17.918496","MEAN_MOTION":15.6142758,"ECCENTRICITY":0.0004758,"INCLINATION":41.4663,"RA_OF_ASC_NODE":118.0307,"ARG_OF_PERICENTER":10.7895,"MEAN_ANOMALY":349.3045,"EPHEMERIS_TYPE":0,"CLASSIFICATION_TYPE":"U","NORAD_CAT_ID":64786,"ELEMENT_SET_NO":999,"REV_AT_EPOCH":27999,"BSTAR":0.000224,"MEAN_MOTION_DOT":0.00019397,"MEAN_MOTION_DDOT":0},{"OBJECT_NAME":"PROGRESS-MS 32","OBJECT_ID":"2025-204A","EPOCH":"2026-03-24T03:55:35.551488","MEAN_MOTION":15.48514008,"ECCENTRICITY":0.00062677,"INCLINATION":51.6345,"RA_OF_ASC_NODE":0.8084,"ARG_OF_PERICENTER":226.2093,"MEAN_ANOMALY":133.8378,"EPHEMERIS_TYPE":0,"CLASSIFICATION_TYPE":"U","NORAD_CAT_ID":65586,"ELEMENT_SET_NO":999,"REV_AT_EPOCH":55450,"BSTAR":0.0002692749,"MEAN_MOTION_DOT":0.0001417,"MEAN_MOTION_DDOT":0},{"OBJECT_NAME":"YOTSUBA-KULOVER","OBJECT_ID":"1998-067XN","EPOCH":"2026-03-23T23:07:06.848544","MEAN_MOTION":15.88031375,"ECCENTRICITY":0.0005099,"INCLINATION":51.6197,"RA_OF_ASC_NODE":342.8745,"ARG_OF_PERICENTER":174.2801,"MEAN_ANOMALY":185.8263,"EPHEMERIS_TYPE":0,"CLASSIFICATION_TYPE":"U","NORAD_CAT_ID":65941,"ELEMENT_SET_NO":999,"REV_AT_EPOCH":2576,"BSTAR":0.0011505657,"MEAN_MOTION_DOT":0.00332191,"MEAN_MOTION_DDOT":0},{"OBJECT_NAME":"BOTAN","OBJECT_ID":"1998-067XQ","EPOCH":"2026-03-23T23:19:51.733056","MEAN_MOTION":15.87345825,"ECCENTRICITY":0.00056918,"INCLINATION":51.6228,"RA_OF_ASC_NODE":342.9564,"ARG_OF_PERICENTER":173.8079,"MEAN_ANOMALY":186.2997,"EPHEMERIS_TYPE":0,"CLASSIFICATION_TYPE":"U","NORAD_CAT_ID":65943,"ELEMENT_SET_NO":999,"REV_AT_EPOCH":2576,"BSTAR":0.0011097541,"MEAN_MOTION_DOT":0.00308939,"MEAN_MOTION_DDOT":0},{"OBJECT_NAME":"HRC MONOBLOCK CAMERA","OBJECT_ID":"1998-067XR","EPOCH":"2026-03-24T11:16:22.341792","MEAN_MOTION":15.63768342,"ECCENTRICITY":0.0003822,"INCLINATION":51.6287,"RA_OF_ASC_NODE":350.8514,"ARG_OF_PERICENTER":160.3996,"MEAN_ANOMALY":199.7146,"EPHEMERIS_TYPE":0,"CLASSIFICATION_TYPE":"U","NORAD_CAT_ID":66052,"ELEMENT_SET_NO":999,"REV_AT_EPOCH":2470,"BSTAR":0.00047981,"MEAN_MOTION_DOT":0.00045505,"MEAN_MOTION_DDOT":0},{"OBJECT_NAME":"HTV-X1","OBJECT_ID":"2025-241A","EPOCH":"2026-03-24T07:44:52.392768","MEAN_MOTION":15.32402906,"ECCENTRICITY":0.0007466,"INCLINATION":51.6376,"RA_OF_ASC_NODE":2.5775,"ARG_OF_PERICENTER":227.6504,"MEAN_ANOMALY":132.3845,"EPHEMERIS_TYPE":0,"CLASSIFICATION_TYPE":"U","NORAD_CAT_ID":66174,"ELEMENT_SET_NO":999,"REV_AT_EPOCH":2318,"BSTAR":0.00018606,"MEAN_MOTION_DOT":5.545e-5,"MEAN_MOTION_DDOT":0},{"OBJECT_NAME":"SZ-21 MODULE","OBJECT_ID":"2025-246C","EPOCH":"2026-03-24T10:58:38.996256","MEAN_MOTION":15.69668398,"ECCENTRICITY":8.53e-5,"INCLINATION":41.4738,"RA_OF_ASC_NODE":112.3746,"ARG_OF_PERICENTER":213.1562,"MEAN_ANOMALY":146.9227,"EPHEMERIS_TYPE":0,"CLASSIFICATION_TYPE":"U","NORAD_CAT_ID":66515,"ELEMENT_SET_NO":999,"REV_AT_EPOCH":2039,"BSTAR":0.00027749,"MEAN_MOTION_DOT":0.00033703,"MEAN_MOTION_DDOT":0},{"OBJECT_NAME":"SHENZHOU-22","OBJECT_ID":"2025-272A","EPOCH":"2026-03-24T11:51:17.918496","MEAN_MOTION":15.6142758,"ECCENTRICITY":0.0004758,"INCLINATION":41.4663,"RA_OF_ASC_NODE":118.0307,"ARG_OF_PERICENTER":10.7895,"MEAN_ANOMALY":349.3045,"EPHEMERIS_TYPE":0,"CLASSIFICATION_TYPE":"U","NORAD_CAT_ID":66645,"ELEMENT_SET_NO":999,"REV_AT_EPOCH":27999,"BSTAR":0.000224,"MEAN_MOTION_DOT":0.00019397,"MEAN_MOTION_DDOT":0},{"OBJECT_NAME":"SOYUZ-MS 28","OBJECT_ID":"2025-275A","EPOCH":"2026-03-24T11:40:14.731104","MEAN_MOTION":15.48523431,"ECCENTRICITY":0.0006234,"INCLINATION":51.6345,"RA_OF_ASC_NODE":359.2131,"ARG_OF_PERICENTER":227.6352,"MEAN_ANOMALY":132.4108,"EPHEMERIS_TYPE":0,"CLASSIFICATION_TYPE":"U","NORAD_CAT_ID":66664,"ELEMENT_SET_NO":999,"REV_AT_EPOCH":55867,"BSTAR":0.00025488,"MEAN_MOTION_DOT":0.00013391,"MEAN_MOTION_DDOT":0},{"OBJECT_NAME":"DUPLEX","OBJECT_ID":"1998-067XS","EPOCH":"2026-03-24T11:30:41.658048","MEAN_MOTION":15.57139447,"ECCENTRICITY":0.0003163,"INCLINATION":51.6302,"RA_OF_ASC_NODE":355.4219,"ARG_OF_PERICENTER":176.3649,"MEAN_ANOMALY":183.7366,"EPHEMERIS_TYPE":0,"CLASSIFICATION_TYPE":"U","NORAD_CAT_ID":66906,"ELEMENT_SET_NO":999,"REV_AT_EPOCH":1743,"BSTAR":0.00037156,"MEAN_MOTION_DOT":0.00027087,"MEAN_MOTION_DDOT":0}]
